CCSDS_OMM_VERS = 2.0
CREATION_DATE  = 
ORIGINATOR     = 

OBJECT_NAME    = STARLINK-36419
OBJECT_ID      = 2026-016Z
CENTER_NAME    = EARTH
REF_FRAME      = TEME
TIME_SYSTEM    = UTC
MEAN_ELEMENT_THEORY = SGP/SGP4

EPOCH          = 2026-02-05T18:00:02.000160
MEAN_MOTION    = 15.87111442
ECCENTRICITY   = .00015216
INCLINATION    = 97.2768
RA_OF_ASC_NODE = 95.5973
ARG_OF_PERICENTER = 87.2837
MEAN_ANOMALY   = 192.3907

EPHEMERIS_TYPE = 0
CLASSIFICATION_TYPE = U
NORAD_CAT_ID   = 67584
ELEMENT_SET_NO = 999
REV_AT_EPOCH   = 291
BSTAR          = -.78800951E-2
MEAN_MOTION_DOT = -.1759684E-1
MEAN_MOTION_DDOT = 0

CCSDS_OMM_VERS = 2.0
CREATION_DATE  = 
ORIGINATOR     = 

OBJECT_NAME    = STARLINK-36560
OBJECT_ID      = 2026-016AA
CENTER_NAME    = EARTH
REF_FRAME      = TEME
TIME_SYSTEM    = UTC
MEAN_ELEMENT_THEORY = SGP/SGP4

EPOCH          = 2026-02-05T18:00:02.000160
MEAN_MOTION    = 15.87440417
ECCENTRICITY   = .00015087
INCLINATION    = 97.2763
RA_OF_ASC_NODE = 95.6005
ARG_OF_PERICENTER = 92.0324
MEAN_ANOMALY   = 195.3652

EPHEMERIS_TYPE = 0
CLASSIFICATION_TYPE = U
NORAD_CAT_ID   = 67585
ELEMENT_SET_NO = 999
REV_AT_EPOCH   = 285
BSTAR          = -.77448508E-2
MEAN_MOTION_DOT = -.1758148E-1
MEAN_MOTION_DDOT = 0

CCSDS_OMM_VERS = 2.0
CREATION_DATE  = 
ORIGINATOR     = 

OBJECT_NAME    = CZ-2C DEB
OBJECT_ID      = 2026-009D
CENTER_NAME    = EARTH
REF_FRAME      = TEME
TIME_SYSTEM    = UTC
MEAN_ELEMENT_THEORY = SGP/SGP4

EPOCH          = 2026-02-05T15:42:54.741600
MEAN_MOTION    = 15.13319150
ECCENTRICITY   = .0108145
INCLINATION    = 97.6728
RA_OF_ASC_NODE = 111.4798
ARG_OF_PERICENTER = 153.1374
MEAN_ANOMALY   = 207.5515

EPHEMERIS_TYPE = 0
CLASSIFICATION_TYPE = U
NORAD_CAT_ID   = 67587
ELEMENT_SET_NO = 999
REV_AT_EPOCH   = 324
BSTAR          = .4229E-2
MEAN_MOTION_DOT = .87841E-3
MEAN_MOTION_DDOT = 0

CCSDS_OMM_VERS = 2.0
CREATION_DATE  = 
ORIGINATOR     = 

OBJECT_NAME    = NAVSTAR 85 (USA 581)
OBJECT_ID      = 2026-017A
CENTER_NAME    = EARTH
REF_FRAME      = TEME
TIME_SYSTEM    = UTC
MEAN_ELEMENT_THEORY = SGP/SGP4

EPOCH          = 2026-02-05T01:48:20.280672
MEAN_MOTION    = 2.00758640
ECCENTRICITY   = .002009
INCLINATION    = 55.8950
RA_OF_ASC_NODE = 94.6111
ARG_OF_PERICENTER = 279.5353
MEAN_ANOMALY   = 80.3070

EPHEMERIS_TYPE = 0
CLASSIFICATION_TYPE = U
NORAD_CAT_ID   = 67588
ELEMENT_SET_NO = 999
REV_AT_EPOCH   = 42897
BSTAR          = 0
MEAN_MOTION_DOT = -.19E-6
MEAN_MOTION_DDOT = 0

CCSDS_OMM_VERS = 2.0
CREATION_DATE  = 
ORIGINATOR     = 

OBJECT_NAME    = STARLINK-36641
OBJECT_ID      = 2026-018A
CENTER_NAME    = EARTH
REF_FRAME      = TEME
TIME_SYSTEM    = UTC
MEAN_ELEMENT_THEORY = SGP/SGP4

EPOCH          = 2026-02-05T18:00:02.000160
MEAN_MOTION    = 15.95063041
ECCENTRICITY   = .00016359
INCLINATION    = 97.2800
RA_OF_ASC_NODE = 100.8292
ARG_OF_PERICENTER = 85.4617
MEAN_ANOMALY   = 138.5067

EPHEMERIS_TYPE = 0
CLASSIFICATION_TYPE = U
NORAD_CAT_ID   = 67589
ELEMENT_SET_NO = 999
REV_AT_EPOCH   = 220
BSTAR          = -.47576107E-2
MEAN_MOTION_DOT = -.182214E-1
MEAN_MOTION_DDOT = .94527044E-3

CCSDS_OMM_VERS = 2.0
CREATION_DATE  = 
ORIGINATOR     = 

OBJECT_NAME    = STARLINK-36376
OBJECT_ID      = 2026-018B
CENTER_NAME    = EARTH
REF_FRAME      = TEME
TIME_SYSTEM    = UTC
MEAN_ELEMENT_THEORY = SGP/SGP4

EPOCH          = 2026-02-05T18:00:02.000160
MEAN_MOTION    = 15.95230252
ECCENTRICITY   = .00016653
INCLINATION    = 97.2797
RA_OF_ASC_NODE = 100.8303
ARG_OF_PERICENTER = 81.8598
MEAN_ANOMALY   = 144.6753

EPHEMERIS_TYPE = 0
CLASSIFICATION_TYPE = U
NORAD_CAT_ID   = 67590
ELEMENT_SET_NO = 999
REV_AT_EPOCH   = 225
BSTAR          = -.47043502E-2
MEAN_MOTION_DOT = -.1817907E-1
MEAN_MOTION_DDOT = .94284693E-3

CCSDS_OMM_VERS = 2.0
CREATION_DATE  = 
ORIGINATOR     = 

OBJECT_NAME    = STARLINK-36391
OBJECT_ID      = 2026-018C
CENTER_NAME    = EARTH
REF_FRAME      = TEME
TIME_SYSTEM    = UTC
MEAN_ELEMENT_THEORY = SGP/SGP4

EPOCH          = 2026-02-05T18:00:02.000160
MEAN_MOTION    = 15.95430848
ECCENTRICITY   = .00015372
INCLINATION    = 97.2796
RA_OF_ASC_NODE = 100.8317
ARG_OF_PERICENTER = 87.0807
MEAN_ANOMALY   = 142.4519

EPHEMERIS_TYPE = 0
CLASSIFICATION_TYPE = U
NORAD_CAT_ID   = 67591
ELEMENT_SET_NO = 999
REV_AT_EPOCH   = 225
BSTAR          = -.46363497E-2
MEAN_MOTION_DOT = -.1810948E-1
MEAN_MOTION_DDOT = .93811166E-3

CCSDS_OMM_VERS = 2.0
CREATION_DATE  = 
ORIGINATOR     = 

OBJECT_NAME    = STARLINK-36603
OBJECT_ID      = 2026-018D
CENTER_NAME    = EARTH
REF_FRAME      = TEME
TIME_SYSTEM    = UTC
MEAN_ELEMENT_THEORY = SGP/SGP4

EPOCH          = 2026-02-05T18:00:02.000160
MEAN_MOTION    = 15.95564257
ECCENTRICITY   = .0001599
INCLINATION    = 97.2795
RA_OF_ASC_NODE = 100.8325
ARG_OF_PERICENTER = 88.3237
MEAN_ANOMALY   = 143.3149

EPHEMERIS_TYPE = 0
CLASSIFICATION_TYPE = U
NORAD_CAT_ID   = 67592
ELEMENT_SET_NO = 999
REV_AT_EPOCH   = 221
BSTAR          = -.46029906E-2
MEAN_MOTION_DOT = -.1810803E-1
MEAN_MOTION_DDOT = .93931379E-3

CCSDS_OMM_VERS = 2.0
CREATION_DATE  = 
ORIGINATOR     = 

OBJECT_NAME    = STARLINK-36634
OBJECT_ID      = 2026-018E
CENTER_NAME    = EARTH
REF_FRAME      = TEME
TIME_SYSTEM    = UTC
MEAN_ELEMENT_THEORY = SGP/SGP4

EPOCH          = 2026-02-05T18:00:02.000160
MEAN_MOTION    = 15.95773033
ECCENTRICITY   = .00016008
INCLINATION    = 97.2793
RA_OF_ASC_NODE = 100.8337
ARG_OF_PERICENTER = 82.4761
MEAN_ANOMALY   = 152.2610

EPHEMERIS_TYPE = 0
CLASSIFICATION_TYPE = U
NORAD_CAT_ID   = 67593
ELEMENT_SET_NO = 999
REV_AT_EPOCH   = 220
BSTAR          = -.45351589E-2
MEAN_MOTION_DOT = -.1804257E-1
MEAN_MOTION_DDOT = .93506634E-3

CCSDS_OMM_VERS = 2.0
CREATION_DATE  = 
ORIGINATOR     = 

OBJECT_NAME    = STARLINK-36638
OBJECT_ID      = 2026-018F
CENTER_NAME    = EARTH
REF_FRAME      = TEME
TIME_SYSTEM    = UTC
MEAN_ELEMENT_THEORY = SGP/SGP4

EPOCH          = 2026-02-05T18:00:02.000160
MEAN_MOTION    = 15.95972541
ECCENTRICITY   = .00016138
INCLINATION    = 97.2792
RA_OF_ASC_NODE = 100.8351
ARG_OF_PERICENTER = 83.5707
MEAN_ANOMALY   = 154.1358

EPHEMERIS_TYPE = 0
CLASSIFICATION_TYPE = U
NORAD_CAT_ID   = 67594
ELEMENT_SET_NO = 999
REV_AT_EPOCH   = 220
BSTAR          = -.44744174E-2
MEAN_MOTION_DOT = -.1799324E-1
MEAN_MOTION_DDOT = .9322886E-3

CCSDS_OMM_VERS = 2.0
CREATION_DATE  = 
ORIGINATOR     = 

OBJECT_NAME    = STARLINK-36628
OBJECT_ID      = 2026-018G
CENTER_NAME    = EARTH
REF_FRAME      = TEME
TIME_SYSTEM    = UTC
MEAN_ELEMENT_THEORY = SGP/SGP4

EPOCH          = 2026-02-05T18:00:02.000160
MEAN_MOTION    = 15.96113488
ECCENTRICITY   = .00015552
INCLINATION    = 97.2789
RA_OF_ASC_NODE = 100.8360
ARG_OF_PERICENTER = 87.0958
MEAN_ANOMALY   = 152.8683

EPHEMERIS_TYPE = 0
CLASSIFICATION_TYPE = U
NORAD_CAT_ID   = 67595
ELEMENT_SET_NO = 999
REV_AT_EPOCH   = 220
BSTAR          = -.44216814E-2
MEAN_MOTION_DOT = -.1791723E-1
MEAN_MOTION_DDOT = .92634011E-3

