STARLINK-36419          
1 67584U 26016Z   26036.75002315 -.01759684  00000+0 -78801-2 0  9992
2 67584  97.2768  95.5973 0001521  87.2837 192.3907 15.87111442  2910
STARLINK-36560          
1 67585U 26016AA  26036.75002315 -.01758148  00000+0 -77449-2 0  9994
2 67585  97.2763  95.6005 0001508  92.0324 195.3652 15.87440417  2853
CZ-2C DEB               
1 67587U 26009D   26036.65480025  .00087841  00000+0  42290-2 0  9993
2 67587  97.6728 111.4798 0108145 153.1374 207.5515 15.13319150  3241
NAVSTAR 85 (USA 581)    
1 67588U 26017A   26036.07523474 -.00000019  00000+0  00000+0 0  9998
2 67588  55.8950  94.6111 0020089 279.5353  80.3070  2.00758640428973
STARLINK-36641          
1 67589U 26018A   26036.75002315 -.01822140  94527-3 -47576-2 0  9993
2 67589  97.2800 100.8292 0001635  85.4617 138.5067 15.95063041  2209
STARLINK-36376          
1 67590U 26018B   26036.75002315 -.01817907  94285-3 -47044-2 0  9991
2 67590  97.2797 100.8303 0001665  81.8598 144.6753 15.95230252  2255
STARLINK-36391          
1 67591U 26018C   26036.75002315 -.01810948  93811-3 -46363-2 0  9997
2 67591  97.2796 100.8317 0001537  87.0807 142.4519 15.95430848  2258
STARLINK-36603          
1 67592U 26018D   26036.75002315 -.01810803  93931-3 -46030-2 0  9992
2 67592  97.2795 100.8325 0001599  88.3237 143.3149 15.95564257  2213
STARLINK-36634          
1 67593U 26018E   26036.75002315 -.01804257  93507-3 -45352-2 0  9994
2 67593  97.2793 100.8337 0001600  82.4761 152.2610 15.95773033  2200
STARLINK-36638          
1 67594U 26018F   26036.75002315 -.01799324  93229-3 -44744-2 0  9998
2 67594  97.2792 100.8351 0001613  83.5707 154.1358 15.95972541  2207
STARLINK-36628          
1 67595U 26018G   26036.75002315 -.01791723  92634-3 -44217-2 0  9998
2 67595  97.2789 100.8360 0001555  87.0958 152.8683 15.96113488  2200
